{
  "type": "FeatureCollection",
  "features": [
    {
      "type": "Feature",
      "properties": {
        "norad_id": 34299,
        "name": "COSMOS 2251 DEB",
        "group": "cosmos-2251-debris",
        "lat": -12.379687047858553,
        "lon": 156.84041181789485,
        "alt_km": 358.9578239529628,
        "timestamp": "2025-12-13T07:35:41.898720+00:00",
        "meta_object_name": "COSMOS 2251 DEB",
        "meta_object_id": "1993-036MV",
        "meta_epoch": "2025-12-13T00:40:44.597280",
        "meta_mean_motion": 15.73880158,
        "meta_eccentricity": 0.00187047,
        "meta_inclination": 73.9761,
        "meta_ra_of_asc_node": 333.8811,
        "meta_arg_of_pericenter": 59.4394,
        "meta_mean_anomaly": 300.8673,
        "meta_ephemeris_type": 0,
        "meta_classification_type": "U",
        "meta_norad_cat_id": 34299,
        "meta_element_set_no": 999,
        "meta_rev_at_epoch": 89015,
        "meta_bstar": 0.0075185127,
        "meta_mean_motion_dot": 0.01209226,
        "meta_mean_motion_ddot": 0,
        "tle_line1": "1 34299U 93036MV  25347.02829395  .01209226  00000+0  75185-2 0  9996",
        "tle_line2": "2 34299  73.9761 333.8811 0018704  59.4394 300.8673 15.73880158890159"
      },
      "geometry": {
        "type": "Point",
        "coordinates": [
          156.84041181789485,
          -12.379687047858553
        ]
      }
    },
    {
      "type": "Feature",
      "properties": {
        "norad_id": 34301,
        "name": "COSMOS 2251 DEB",
        "group": "cosmos-2251-debris",
        "lat": 58.23593945082812,
        "lon": -166.8451913141592,
        "alt_km": 616.4742241091199,
        "timestamp": "2025-12-13T07:35:41.898729+00:00",
        "meta_object_name": "COSMOS 2251 DEB",
        "meta_object_id": "1993-036MX",
        "meta_epoch": "2025-12-12T22:09:13.919328",
        "meta_mean_motion": 14.84561716,
        "meta_eccentricity": 0.00112807,
        "meta_inclination": 74.005,
        "meta_ra_of_asc_node": 166.3373,
        "meta_arg_of_pericenter": 226.7822,
        "meta_mean_anomaly": 253.9713,
        "meta_ephemeris_type": 0,
        "meta_classification_type": "U",
        "meta_norad_cat_id": 34301,
        "meta_element_set_no": 999,
        "meta_rev_at_epoch": 88403,
        "meta_bstar": 0.0043375382,
        "meta_mean_motion_dot": 0.00036818,
        "meta_mean_motion_ddot": 0,
        "tle_line1": "1 34301U 93036MX  25346.92307777  .00036818  00000+0  43375-2 0  9993",
        "tle_line2": "2 34301  74.0050 166.3373 0011280 226.7822 253.9713 14.84561716884035"
      },
      "geometry": {
        "type": "Point",
        "coordinates": [
          -166.8451913141592,
          58.23593945082812
        ]
      }
    },
    {
      "type": "Feature",
      "properties": {
        "norad_id": 34302,
        "name": "COSMOS 2251 DEB",
        "group": "cosmos-2251-debris",
        "lat": 54.69176635292111,
        "lon": 146.12719250908617,
        "alt_km": 745.477780315875,
        "timestamp": "2025-12-13T07:35:41.898739+00:00",
        "meta_object_name": "COSMOS 2251 DEB",
        "meta_object_id": "1993-036MY",
        "meta_epoch": "2025-12-12T18:33:06.204672",
        "meta_mean_motion": 14.39332123,
        "meta_eccentricity": 0.00788538,
        "meta_inclination": 74.1777,
        "meta_ra_of_asc_node": 123.519,
        "meta_arg_of_pericenter": 338.6827,
        "meta_mean_anomaly": 143.6123,
        "meta_ephemeris_type": 0,
        "meta_classification_type": "U",
        "meta_norad_cat_id": 34302,
        "meta_element_set_no": 999,
        "meta_rev_at_epoch": 87721,
        "meta_bstar": 0.0010099123,
        "meta_mean_motion_dot": 3.229e-05,
        "meta_mean_motion_ddot": 0,
        "tle_line1": "1 34302U 93036MY  25346.77298848  .00003229  00000+0  10099-2 0  9992",
        "tle_line2": "2 34302  74.1777 123.5190 0078853 338.6827 143.6123 14.39332123877212"
      },
      "geometry": {
        "type": "Point",
        "coordinates": [
          146.12719250908617,
          54.69176635292111
        ]
      }
    },
    {
      "type": "Feature",
      "properties": {
        "norad_id": 34303,
        "name": "COSMOS 2251 DEB",
        "group": "cosmos-2251-debris",
        "lat": -73.99501878421242,
        "lon": -162.69380094800619,
        "alt_km": 804.6437575457858,
        "timestamp": "2025-12-13T07:35:41.898748+00:00",
        "meta_object_name": "COSMOS 2251 DEB",
        "meta_object_id": "1993-036MZ",
        "meta_epoch": "2025-12-12T22:26:11.249952",
        "meta_mean_motion": 14.54456611,
        "meta_eccentricity": 0.01350212,
        "meta_inclination": 74.0053,
        "meta_ra_of_asc_node": 287.6717,
        "meta_arg_of_pericenter": 65.986,
        "meta_mean_anomaly": 7.4822,
        "meta_ephemeris_type": 0,
        "meta_classification_type": "U",
        "meta_norad_cat_id": 34303,
        "meta_element_set_no": 999,
        "meta_rev_at_epoch": 87965,
        "meta_bstar": 0.0021320947,
        "meta_mean_motion_dot": 0.00010237,
        "meta_mean_motion_ddot": 0,
        "tle_line1": "1 34303U 93036MZ  25346.93485243  .00010237  00000+0  21321-2 0  9995",
        "tle_line2": "2 34303  74.0053 287.6717 0135021  65.9860   7.4822 14.54456611879653"
      },
      "geometry": {
        "type": "Point",
        "coordinates": [
          -162.69380094800619,
          -73.99501878421242
        ]
      }
    },
    {
      "type": "Feature",
      "properties": {
        "norad_id": 34304,
        "name": "COSMOS 2251 DEB",
        "group": "cosmos-2251-debris",
        "lat": -10.41061701794953,
        "lon": 118.51354126913273,
        "alt_km": 768.4421668260047,
        "timestamp": "2025-12-13T07:35:41.898758+00:00",
        "meta_object_name": "COSMOS 2251 DEB",
        "meta_object_id": "1993-036NA",
        "meta_epoch": "2025-12-11T15:38:34.924704",
        "meta_mean_motion": 14.37842922,
        "meta_eccentricity": 0.01289323,
        "meta_inclination": 74.0134,
        "meta_ra_of_asc_node": 124.6019,
        "meta_arg_of_pericenter": 262.6101,
        "meta_mean_anomaly": 111.8909,
        "meta_ephemeris_type": 0,
        "meta_classification_type": "U",
        "meta_norad_cat_id": 34304,
        "meta_element_set_no": 999,
        "meta_rev_at_epoch": 87281,
        "meta_bstar": 0.0023363663,
        "meta_mean_motion_dot": 7.735e-05,
        "meta_mean_motion_ddot": 0,
        "tle_line1": "1 34304U 93036NA  25345.65179311  .00007735  00000+0  23364-2 0  9998",
        "tle_line2": "2 34304  74.0134 124.6019 0128932 262.6101 111.8909 14.37842922872818"
      },
      "geometry": {
        "type": "Point",
        "coordinates": [
          118.51354126913273,
          -10.41061701794953
        ]
      }
    },
    {
      "type": "Feature",
      "properties": {
        "norad_id": 34307,
        "name": "COSMOS 2251 DEB",
        "group": "cosmos-2251-debris",
        "lat": 15.19146337162686,
        "lon": -43.357145249371015,
        "alt_km": 1225.110839042305,
        "timestamp": "2025-12-13T07:35:41.898767+00:00",
        "meta_object_name": "COSMOS 2251 DEB",
        "meta_object_id": "1993-036ND",
        "meta_epoch": "2025-12-12T16:26:59.995104",
        "meta_mean_motion": 13.54320453,
        "meta_eccentricity": 0.03920653,
        "meta_inclination": 74.0534,
        "meta_ra_of_asc_node": 313.2025,
        "meta_arg_of_pericenter": 144.1554,
        "meta_mean_anomaly": 39.8873,
        "meta_ephemeris_type": 0,
        "meta_classification_type": "U",
        "meta_norad_cat_id": 34307,
        "meta_element_set_no": 999,
        "meta_rev_at_epoch": 82861,
        "meta_bstar": 0.00086877512,
        "meta_mean_motion_dot": 9.48e-06,
        "meta_mean_motion_ddot": 0,
        "tle_line1": "1 34307U 93036ND  25346.68541661  .00000948  00000+0  86878-3 0  9995",
        "tle_line2": "2 34307  74.0534 313.2025 0392065 144.1554  39.8873 13.54320453828610"
      },
      "geometry": {
        "type": "Point",
        "coordinates": [
          -43.357145249371015,
          15.19146337162686
        ]
      }
    },
    {
      "type": "Feature",
      "properties": {
        "norad_id": 34313,
        "name": "COSMOS 2251 DEB",
        "group": "cosmos-2251-debris",
        "lat": 29.606896506318996,
        "lon": 114.88054825001244,
        "alt_km": 503.54716069406277,
        "timestamp": "2025-12-13T07:35:41.898776+00:00",
        "meta_object_name": "COSMOS 2251 DEB",
        "meta_object_id": "1993-036NK",
        "meta_epoch": "2025-12-12T23:02:24.886464",
        "meta_mean_motion": 15.19147536,
        "meta_eccentricity": 0.00114603,
        "meta_inclination": 73.9727,
        "meta_ra_of_asc_node": 305.0305,
        "meta_arg_of_pericenter": 80.9086,
        "meta_mean_anomaly": 279.3407,
        "meta_ephemeris_type": 0,
        "meta_classification_type": "U",
        "meta_norad_cat_id": 34313,
        "meta_element_set_no": 999,
        "meta_rev_at_epoch": 89068,
        "meta_bstar": 0.0056596368,
        "meta_mean_motion_dot": 0.00121138,
        "meta_mean_motion_ddot": 0,
        "tle_line1": "1 34313U 93036NK  25346.96001026  .00121138  00000+0  56596-2 0  9997",
        "tle_line2": "2 34313  73.9727 305.0305 0011460  80.9086 279.3407 15.19147536890685"
      },
      "geometry": {
        "type": "Point",
        "coordinates": [
          114.88054825001244,
          29.606896506318996
        ]
      }
    }
  ]
}